GLOBALSTAR M075         
1 37192U 10054E   24301.06527837 -.00000075  00000+0  15941-3 0  9995
2 37192  51.9928 171.3430 0000775  80.5170  67.9707 12.62268181646938
GLOBALSTAR M073         
1 37193U 10054F   24300.91265892 -.00000096  00000+0  40669-4 0  9998
2 37193  52.0053  85.4447 0000853 112.0832  62.2430 12.62271584648424
GLOBALSTAR M083         
1 37739U 11033A   24301.52379681 -.00000084  00000+0  11076-3 0  9998
2 37739  51.9883  32.6346 0000768 103.6991 269.4580 12.62266765617831
GLOBALSTAR M088         
1 37740U 11033B   24301.02660575 -.00000058  00000+0  25465-3 0  9998
2 37740  51.9738 299.8376 0000515  73.5236 320.1298 12.62264005613246
GLOBALSTAR M091         
1 37741U 11033C   24301.19399259 -.00000074  00000+0  16626-3 0  9992
2 37741  51.9994 262.4679 0000836  66.9804 305.9204 12.62269250614028
GLOBALSTAR M085         
1 37742U 11033D   24301.21384969 -.00000079  00000+0  14068-3 0  9991
2 37742  51.9860 213.6504 0001008  70.6433  93.8029 12.62268076614762
GLOBALSTAR M081         
1 37743U 11033E   24300.91127532 -.00000069  00000+0  19157-3 0  9992
2 37743  51.9954 217.2145 0000966  84.7489  24.3707 12.62262376614384
GLOBALSTAR M089         
1 37744U 11033F   24300.86560473 -.00000087  00000+0  93869-4 0  9995
2 37744  51.9912 171.6283 0000618  96.5604 343.3899 12.62271325615470
